{
"type": "FeatureCollection",
"name": "factories",
"crs": { "type": "name", "properties": { "name": "urn:ogc:def:crs:OGC:1.3:CRS84" } },
"features": [
{ "type": "Feature", "properties": { "element": "node", "id": 3388785618, "building": "industrial", "name": "hmt bearings limited", "addr:city": null, "addr:housenumber": null, "addr:postcode": null, "addr:street": null, "building:levels": null, "website": null, "amenity": null, "content": null, "man_made": null, "operator": null, "power": null, "substation": null, "type": null, "wikidata": null, "wikipedia": null }, "geometry": { "type": "Point", "coordinates": [ 78.5545626, 17.4524958 ] } },
{ "type": "Feature", "properties": { "element": "relation", "id": 5317572, "building": "industrial", "name": null, "addr:city": null, "addr:housenumber": null, "addr:postcode": null, "addr:street": null, "building:levels": null, "website": null, "amenity": null, "content": null, "man_made": null, "operator": null, "power": null, "substation": null, "type": "multipolygon", "wikidata": "Q908961", "wikipedia": "en:Dr. Reddy's Laboratories" }, "geometry": { "type": "Polygon", "coordinates": [ [ [ 78.3589869, 17.5054273 ], [ 78.3594555, 17.5053946 ], [ 78.3594395, 17.5051847 ], [ 78.359381, 17.5051888 ], [ 78.3593696, 17.5050403 ], [ 78.359391, 17.5050388 ], [ 78.3593817, 17.5049185 ], [ 78.359175, 17.5049329 ], [ 78.3591711, 17.5048814 ], [ 78.3590362, 17.5048908 ], [ 78.3590417, 17.5049624 ], [ 78.3586627, 17.5049889 ], [ 78.3586612, 17.5049688 ], [ 78.3585548, 17.5049763 ], [ 78.3586022, 17.505592 ], [ 78.358757, 17.5055811 ], [ 78.3587391, 17.5053488 ], [ 78.3589184, 17.5053363 ], [ 78.3589337, 17.5055347 ], [ 78.3589489, 17.5055336 ], [ 78.3589721, 17.5058281 ], [ 78.3591858, 17.5058127 ], [ 78.3591747, 17.5056731 ], [ 78.359134, 17.505676 ], [ 78.3591252, 17.5055641 ], [ 78.3590213, 17.5055714 ], [ 78.3590172, 17.5055202 ], [ 78.3589943, 17.5055218 ], [ 78.3589874, 17.5054338 ], [ 78.3589869, 17.5054273 ] ], [ [ 78.3590626, 17.5052138 ], [ 78.3590515, 17.5050686 ], [ 78.3593352, 17.5050488 ], [ 78.3593464, 17.505194 ], [ 78.3590626, 17.5052138 ] ], [ [ 78.3588149, 17.5052411 ], [ 78.3588063, 17.5051289 ], [ 78.3588992, 17.5051224 ], [ 78.3589079, 17.5052346 ], [ 78.3588149, 17.5052411 ] ] ] } },
{ "type": "Feature", "properties": { "element": "relation", "id": 5317573, "building": "industrial", "name": null, "addr:city": null, "addr:housenumber": null, "addr:postcode": null, "addr:street": null, "building:levels": null, "website": null, "amenity": null, "content": null, "man_made": null, "operator": null, "power": null, "substation": null, "type": "multipolygon", "wikidata": "Q30262902", "wikipedia": null }, "geometry": { "type": "Polygon", "coordinates": [ [ [ 78.3596272, 17.5062776 ], [ 78.3595032, 17.5062873 ], [ 78.3594823, 17.5060462 ], [ 78.3594081, 17.5060521 ], [ 78.3594038, 17.5060029 ], [ 78.3594781, 17.5059971 ], [ 78.3594718, 17.5059242 ], [ 78.3593635, 17.5059327 ], [ 78.3593596, 17.5058878 ], [ 78.3592296, 17.505898 ], [ 78.3592245, 17.5058391 ], [ 78.3589408, 17.5058614 ], [ 78.3589459, 17.5059207 ], [ 78.3588209, 17.5059305 ], [ 78.3588245, 17.5059729 ], [ 78.3587948, 17.5059753 ], [ 78.3588066, 17.5061123 ], [ 78.3587246, 17.5061188 ], [ 78.3587433, 17.5063354 ], [ 78.3588278, 17.5063288 ], [ 78.3588393, 17.5064626 ], [ 78.3588705, 17.5064601 ], [ 78.3588739, 17.5064994 ], [ 78.3590109, 17.5064887 ], [ 78.3590069, 17.5064419 ], [ 78.3590577, 17.5064379 ], [ 78.3590644, 17.5065153 ], [ 78.3592235, 17.5065028 ], [ 78.3592166, 17.5064237 ], [ 78.3592668, 17.5064197 ], [ 78.3592703, 17.5064596 ], [ 78.3594102, 17.5064486 ], [ 78.359403, 17.5063658 ], [ 78.3595068, 17.5063576 ], [ 78.359514, 17.5064404 ], [ 78.3596404, 17.5064305 ], [ 78.3596272, 17.5062776 ] ], [ [ 78.3592265, 17.5063546 ], [ 78.3592029, 17.506009 ], [ 78.3593559, 17.5061298 ], [ 78.3593633, 17.5062055 ], [ 78.3592265, 17.5063546 ] ], [ [ 78.3590258, 17.5063623 ], [ 78.3588738, 17.5062476 ], [ 78.3588695, 17.5061786 ], [ 78.3589959, 17.5060363 ], [ 78.3590258, 17.5063623 ] ] ] } },
{ "type": "Feature", "properties": { "element": "way", "id": 343857116, "building": "industrial", "name": null, "addr:city": null, "addr:housenumber": null, "addr:postcode": null, "addr:street": null, "building:levels": null, "website": null, "amenity": null, "content": null, "man_made": null, "operator": null, "power": null, "substation": null, "type": null, "wikidata": null, "wikipedia": null }, "geometry": { "type": "Polygon", "coordinates": [ [ [ 78.449837, 17.5254468 ], [ 78.4502248, 17.5258194 ], [ 78.4506411, 17.5254255 ], [ 78.4502532, 17.5250529 ], [ 78.449837, 17.5254468 ] ] ] } },
{ "type": "Feature", "properties": { "element": "way", "id": 343857213, "building": "industrial", "name": null, "addr:city": null, "addr:housenumber": null, "addr:postcode": null, "addr:street": null, "building:levels": null, "website": null, "amenity": null, "content": null, "man_made": null, "operator": null, "power": null, "substation": null, "type": null, "wikidata": null, "wikipedia": null }, "geometry": { "type": "Polygon", "coordinates": [ [ [ 78.4504119, 17.5250175 ], [ 78.4506134, 17.5252165 ], [ 78.450661, 17.5251727 ], [ 78.4504595, 17.5249737 ], [ 78.4504119, 17.5250175 ] ] ] } },
{ "type": "Feature", "properties": { "element": "way", "id": 343858159, "building": "industrial", "name": null, "addr:city": null, "addr:housenumber": null, "addr:postcode": null, "addr:street": null, "building:levels": null, "website": null, "amenity": null, "content": null, "man_made": null, "operator": null, "power": null, "substation": null, "type": null, "wikidata": null, "wikipedia": null }, "geometry": { "type": "Polygon", "coordinates": [ [ [ 78.4504627, 17.524967 ], [ 78.4506629, 17.5251607 ], [ 78.4507093, 17.525117 ], [ 78.4505091, 17.5249234 ], [ 78.4504627, 17.524967 ] ] ] } },
{ "type": "Feature", "properties": { "element": "way", "id": 356175835, "building": "industrial", "name": null, "addr:city": null, "addr:housenumber": null, "addr:postcode": null, "addr:street": null, "building:levels": null, "website": null, "amenity": null, "content": null, "man_made": null, "operator": null, "power": null, "substation": null, "type": null, "wikidata": null, "wikipedia": null }, "geometry": { "type": "Polygon", "coordinates": [ [ [ 78.4447933, 17.491356 ], [ 78.4447663, 17.4916036 ], [ 78.4454828, 17.4916745 ], [ 78.4455097, 17.4914269 ], [ 78.4447933, 17.491356 ] ] ] } },
{ "type": "Feature", "properties": { "element": "way", "id": 356175909, "building": "industrial", "name": null, "addr:city": null, "addr:housenumber": null, "addr:postcode": null, "addr:street": null, "building:levels": null, "website": null, "amenity": null, "content": null, "man_made": null, "operator": null, "power": null, "substation": null, "type": null, "wikidata": null, "wikipedia": null }, "geometry": { "type": "Polygon", "coordinates": [ [ [ 78.4447226, 17.4927654 ], [ 78.4452221, 17.4928182 ], [ 78.4453299, 17.4918904 ], [ 78.4448304, 17.4918377 ], [ 78.4447226, 17.4927654 ] ] ] } },
{ "type": "Feature", "properties": { "element": "way", "id": 356245931, "building": "industrial", "name": "pioneer-soft", "addr:city": "Hyderabad", "addr:housenumber": "297", "addr:postcode": "500034", "addr:street": "Bhavani Nagar", "building:levels": "3", "website": "www.pioneer-soft.com", "amenity": null, "content": null, "man_made": null, "operator": null, "power": null, "substation": null, "type": null, "wikidata": null, "wikipedia": null }, "geometry": { "type": "Polygon", "coordinates": [ [ [ 78.4317349, 17.4164476 ], [ 78.4318646, 17.4164334 ], [ 78.4318507, 17.4163178 ], [ 78.4317145, 17.4163366 ], [ 78.4317349, 17.4164476 ] ] ] } },
{ "type": "Feature", "properties": { "element": "way", "id": 596477874, "building": "industrial", "name": "YMS function hall", "addr:city": null, "addr:housenumber": null, "addr:postcode": null, "addr:street": null, "building:levels": null, "website": null, "amenity": "events_venue", "content": null, "man_made": null, "operator": null, "power": null, "substation": null, "type": null, "wikidata": null, "wikipedia": null }, "geometry": { "type": "Polygon", "coordinates": [ [ [ 78.444794, 17.4912307 ], [ 78.4454801, 17.4912949 ], [ 78.4455673, 17.4904472 ], [ 78.4448812, 17.4903829 ], [ 78.444794, 17.4912307 ] ] ] } },
{ "type": "Feature", "properties": { "element": "way", "id": 679993505, "building": "industrial", "name": null, "addr:city": null, "addr:housenumber": null, "addr:postcode": null, "addr:street": null, "building:levels": null, "website": null, "amenity": null, "content": "water", "man_made": "storage_tank", "operator": null, "power": null, "substation": null, "type": null, "wikidata": null, "wikipedia": null }, "geometry": { "type": "Polygon", "coordinates": [ [ [ 78.408133, 17.509936 ], [ 78.4081147, 17.5099556 ], [ 78.4080996, 17.5099775 ], [ 78.4080879, 17.5100012 ], [ 78.4080798, 17.5100262 ], [ 78.4080756, 17.5100521 ], [ 78.4080753, 17.5100783 ], [ 78.408079, 17.5101043 ], [ 78.4080865, 17.5101295 ], [ 78.4080977, 17.5101534 ], [ 78.4081124, 17.5101756 ], [ 78.4081302, 17.5101955 ], [ 78.4081509, 17.5102128 ], [ 78.4081739, 17.5102271 ], [ 78.4081988, 17.5102381 ], [ 78.4082251, 17.5102456 ], [ 78.4082523, 17.5102495 ], [ 78.4082798, 17.5102496 ], [ 78.408307, 17.510246 ], [ 78.4083334, 17.5102386 ], [ 78.4083584, 17.5102278 ], [ 78.4083816, 17.5102137 ], [ 78.408404, 17.5101949 ], [ 78.4084232, 17.5101731 ], [ 78.4084385, 17.5101486 ], [ 78.4084497, 17.5101222 ], [ 78.4084565, 17.5100945 ], [ 78.4084586, 17.5100661 ], [ 78.4084561, 17.5100377 ], [ 78.4084491, 17.51001 ], [ 78.4084376, 17.5099837 ], [ 78.4084219, 17.5099595 ], [ 78.4084026, 17.5099378 ], [ 78.4083799, 17.5099193 ], [ 78.4083545, 17.5099044 ], [ 78.4083269, 17.5098934 ], [ 78.4082979, 17.5098866 ], [ 78.4082682, 17.5098841 ], [ 78.4082384, 17.5098862 ], [ 78.4082093, 17.5098926 ], [ 78.4081816, 17.5099032 ], [ 78.4081559, 17.5099178 ], [ 78.408133, 17.509936 ] ] ] } },
{ "type": "Feature", "properties": { "element": "way", "id": 863266267, "building": "industrial", "name": null, "addr:city": null, "addr:housenumber": null, "addr:postcode": null, "addr:street": null, "building:levels": null, "website": null, "amenity": null, "content": null, "man_made": null, "operator": null, "power": null, "substation": null, "type": null, "wikidata": null, "wikipedia": null }, "geometry": { "type": "Polygon", "coordinates": [ [ [ 78.5616564, 17.3974094 ], [ 78.5615822, 17.397121 ], [ 78.561655, 17.397104 ], [ 78.5616889, 17.3972357 ], [ 78.5617683, 17.3972171 ], [ 78.5618085, 17.3973737 ], [ 78.5616564, 17.3974094 ] ] ] } },
{ "type": "Feature", "properties": { "element": "way", "id": 971915555, "building": "industrial", "name": "TSPDCL", "addr:city": null, "addr:housenumber": null, "addr:postcode": null, "addr:street": null, "building:levels": null, "website": null, "amenity": null, "content": null, "man_made": null, "operator": "TSPDCL", "power": "substation", "substation": "substation", "type": null, "wikidata": null, "wikipedia": null }, "geometry": { "type": "Polygon", "coordinates": [ [ [ 78.3535085, 17.4902307 ], [ 78.3536289, 17.4902826 ], [ 78.3537334, 17.490038 ], [ 78.3534025, 17.4899055 ], [ 78.3533409, 17.4900449 ], [ 78.35353, 17.4901378 ], [ 78.3535085, 17.4902307 ] ] ] } },
{ "type": "Feature", "properties": { "element": "way", "id": 1087159225, "building": "industrial", "name": null, "addr:city": null, "addr:housenumber": null, "addr:postcode": null, "addr:street": null, "building:levels": null, "website": null, "amenity": null, "content": null, "man_made": null, "operator": null, "power": null, "substation": null, "type": null, "wikidata": null, "wikipedia": null }, "geometry": { "type": "Polygon", "coordinates": [ [ [ 78.4444411, 17.4910058 ], [ 78.4445597, 17.4909474 ], [ 78.444544, 17.4909023 ], [ 78.4445712, 17.4908885 ], [ 78.4445598, 17.4907812 ], [ 78.4445995, 17.490765 ], [ 78.4445531, 17.4906538 ], [ 78.4446129, 17.4906212 ], [ 78.4445378, 17.4904624 ], [ 78.4442363, 17.4906015 ], [ 78.4444411, 17.4910058 ] ] ] } },
{ "type": "Feature", "properties": { "element": "way", "id": 1126830984, "building": "industrial", "name": null, "addr:city": null, "addr:housenumber": null, "addr:postcode": null, "addr:street": null, "building:levels": null, "website": null, "amenity": null, "content": null, "man_made": null, "operator": null, "power": null, "substation": null, "type": null, "wikidata": null, "wikipedia": null }, "geometry": { "type": "Polygon", "coordinates": [ [ [ 78.3064786, 17.4508949 ], [ 78.306511, 17.4509449 ], [ 78.3065979, 17.4508938 ], [ 78.3065655, 17.4508437 ], [ 78.3064786, 17.4508949 ] ] ] } },
{ "type": "Feature", "properties": { "element": "way", "id": 1147844670, "building": "industrial", "name": null, "addr:city": null, "addr:housenumber": null, "addr:postcode": null, "addr:street": null, "building:levels": null, "website": null, "amenity": null, "content": null, "man_made": null, "operator": null, "power": null, "substation": null, "type": null, "wikidata": null, "wikipedia": null }, "geometry": { "type": "Polygon", "coordinates": [ [ [ 78.257357, 17.5301898 ], [ 78.2575177, 17.5301487 ], [ 78.2574063, 17.5297528 ], [ 78.2572457, 17.5297938 ], [ 78.257357, 17.5301898 ] ] ] } },
{ "type": "Feature", "properties": { "element": "way", "id": 1147844675, "building": "industrial", "name": null, "addr:city": null, "addr:housenumber": null, "addr:postcode": null, "addr:street": null, "building:levels": null, "website": null, "amenity": null, "content": null, "man_made": null, "operator": null, "power": null, "substation": null, "type": null, "wikidata": null, "wikipedia": null }, "geometry": { "type": "Polygon", "coordinates": [ [ [ 78.259284, 17.5239477 ], [ 78.2593844, 17.5238973 ], [ 78.2591632, 17.5234959 ], [ 78.2590627, 17.5235462 ], [ 78.259284, 17.5239477 ] ] ] } },
{ "type": "Feature", "properties": { "element": "way", "id": 1147844676, "building": "industrial", "name": null, "addr:city": null, "addr:housenumber": null, "addr:postcode": null, "addr:street": null, "building:levels": null, "website": null, "amenity": null, "content": null, "man_made": null, "operator": null, "power": null, "substation": null, "type": null, "wikidata": null, "wikipedia": null }, "geometry": { "type": "Polygon", "coordinates": [ [ [ 78.2593901, 17.5238734 ], [ 78.2594959, 17.523823 ], [ 78.2592917, 17.5234323 ], [ 78.2591857, 17.5234827 ], [ 78.2593901, 17.5238734 ] ] ] } },
{ "type": "Feature", "properties": { "element": "way", "id": 1147844677, "building": "industrial", "name": null, "addr:city": null, "addr:housenumber": null, "addr:postcode": null, "addr:street": null, "building:levels": null, "website": null, "amenity": null, "content": null, "man_made": null, "operator": null, "power": null, "substation": null, "type": null, "wikidata": null, "wikipedia": null }, "geometry": { "type": "Polygon", "coordinates": [ [ [ 78.2597417, 17.5241781 ], [ 78.2596928, 17.5240834 ], [ 78.2594197, 17.5242118 ], [ 78.2594686, 17.5243064 ], [ 78.2597417, 17.5241781 ] ] ] } },
{ "type": "Feature", "properties": { "element": "way", "id": 1178248550, "building": "industrial", "name": null, "addr:city": null, "addr:housenumber": null, "addr:postcode": null, "addr:street": null, "building:levels": null, "website": null, "amenity": null, "content": null, "man_made": null, "operator": null, "power": null, "substation": null, "type": null, "wikidata": null, "wikipedia": null }, "geometry": { "type": "Polygon", "coordinates": [ [ [ 78.5520039, 17.388834 ], [ 78.5517874, 17.3884843 ], [ 78.5520363, 17.3883445 ], [ 78.5522538, 17.3886905 ], [ 78.5520039, 17.388834 ] ] ] } },
{ "type": "Feature", "properties": { "element": "way", "id": 1178255346, "building": "industrial", "name": null, "addr:city": null, "addr:housenumber": null, "addr:postcode": null, "addr:street": null, "building:levels": null, "website": null, "amenity": null, "content": null, "man_made": null, "operator": null, "power": null, "substation": null, "type": null, "wikidata": null, "wikipedia": null }, "geometry": { "type": "Polygon", "coordinates": [ [ [ 78.5544614, 17.3872042 ], [ 78.5545401, 17.3871935 ], [ 78.5544869, 17.386836 ], [ 78.5544082, 17.3868467 ], [ 78.5544614, 17.3872042 ] ] ] } },
{ "type": "Feature", "properties": { "element": "way", "id": 1209376630, "building": "industrial", "name": null, "addr:city": null, "addr:housenumber": null, "addr:postcode": null, "addr:street": null, "building:levels": null, "website": null, "amenity": null, "content": null, "man_made": null, "operator": null, "power": null, "substation": null, "type": null, "wikidata": null, "wikipedia": null }, "geometry": { "type": "Polygon", "coordinates": [ [ [ 78.2524257, 17.5371575 ], [ 78.2525867, 17.5371098 ], [ 78.2524709, 17.5367546 ], [ 78.2523099, 17.5368023 ], [ 78.2524257, 17.5371575 ] ] ] } },
{ "type": "Feature", "properties": { "element": "way", "id": 1446745377, "building": "industrial", "name": null, "addr:city": null, "addr:housenumber": null, "addr:postcode": null, "addr:street": null, "building:levels": null, "website": null, "amenity": null, "content": null, "man_made": null, "operator": null, "power": null, "substation": null, "type": null, "wikidata": null, "wikipedia": null }, "geometry": { "type": "Polygon", "coordinates": [ [ [ 78.3770822, 17.5002338 ], [ 78.3773824, 17.5003793 ], [ 78.3774244, 17.5003006 ], [ 78.3771241, 17.5001551 ], [ 78.3770822, 17.5002338 ] ] ] } },
{ "type": "Feature", "properties": { "element": "way", "id": 1446745378, "building": "industrial", "name": null, "addr:city": null, "addr:housenumber": null, "addr:postcode": null, "addr:street": null, "building:levels": null, "website": null, "amenity": null, "content": null, "man_made": null, "operator": null, "power": null, "substation": null, "type": null, "wikidata": null, "wikipedia": null }, "geometry": { "type": "Polygon", "coordinates": [ [ [ 78.3771736, 17.5000292 ], [ 78.3774739, 17.5001748 ], [ 78.3775159, 17.500096 ], [ 78.3772156, 17.4999505 ], [ 78.3771736, 17.5000292 ] ] ] } },
{ "type": "Feature", "properties": { "element": "way", "id": 1446745379, "building": "industrial", "name": null, "addr:city": null, "addr:housenumber": null, "addr:postcode": null, "addr:street": null, "building:levels": null, "website": null, "amenity": null, "content": null, "man_made": null, "operator": null, "power": null, "substation": null, "type": null, "wikidata": null, "wikipedia": null }, "geometry": { "type": "Polygon", "coordinates": [ [ [ 78.377247, 17.4999291 ], [ 78.3775473, 17.5000746 ], [ 78.3775892, 17.4999959 ], [ 78.3772889, 17.4998504 ], [ 78.377247, 17.4999291 ] ] ] } },
{ "type": "Feature", "properties": { "element": "way", "id": 1446745380, "building": "industrial", "name": null, "addr:city": null, "addr:housenumber": null, "addr:postcode": null, "addr:street": null, "building:levels": null, "website": null, "amenity": null, "content": null, "man_made": null, "operator": null, "power": null, "substation": null, "type": null, "wikidata": null, "wikipedia": null }, "geometry": { "type": "Polygon", "coordinates": [ [ [ 78.3776533, 17.4995854 ], [ 78.3777179, 17.4996074 ], [ 78.3777352, 17.4995613 ], [ 78.3776707, 17.4995393 ], [ 78.3776533, 17.4995854 ] ] ] } }
]
}
